{
"type": "FeatureCollection",
"name": "centroides_polos",
"crs": { "type": "name", "properties": { "name": "urn:ogc:def:crs:OGC:1.3:CRS84" } },
"features": [
{ "type": "Feature", "properties": { "fid": 1, "begin": "1", "end": "137", "layer": "Ciudad Ixtepec", "estatus": "11 de octubre de 2023", "entidad": "Oaxaca" }, "geometry": { "type": "Point", "coordinates": [ -95.151713803158245, 16.553518923354833 ] } },
{ "type": "Feature", "properties": { "fid": 2, "begin": "14", "end": "25", "layer": "Futura Capital de la Tecnología y la Sostenibilidad", "estatus": "01 de julio de 2025", "entidad": "Puebla" }, "geometry": { "type": "Point", "coordinates": [ -97.742057432403485, 19.218668014995632 ] } },
{ "type": "Feature", "properties": { "fid": 3, "begin": "2", "end": "13", "layer": "Futura Capital de la Tecnología y la Sostenibilidad", "estatus": "01 de julio de 2025", "entidad": "Puebla" }, "geometry": { "type": "Point", "coordinates": [ -97.737426360356437, 19.228547883167316 ] } },
{ "type": "Feature", "properties": { "fid": 4, "begin": "26", "end": "157", "layer": "Futura Capital de la Tecnología y la Sostenibilidad", "estatus": "01 de julio de 2025", "entidad": "Puebla" }, "geometry": { "type": "Point", "coordinates": [ -97.782836535667272, 19.206775783099321 ] } },
{ "type": "Feature", "properties": { "fid": 5, "begin": null, "end": null, "layer": "Parque Industrial Bajío", "estatus": "07 de julio de 2025", "entidad": "Michoacán" }, "geometry": { "type": "Point", "coordinates": [ -100.957853981011397, 19.894856826303208 ] } },
{ "type": "Feature", "properties": { "fid": 6, "begin": null, "end": null, "layer": "Parque Industrial Bajío", "estatus": "07 de julio de 2025", "entidad": "Michoacán" }, "geometry": { "type": "Point", "coordinates": [ -100.96433130003841, 19.887006388147526 ] } },
{ "type": "Feature", "properties": { "fid": 7, "begin": null, "end": null, "layer": "Parque Industrial Bajío", "estatus": "07 de julio de 2025", "entidad": "Michoacán" }, "geometry": { "type": "Point", "coordinates": [ -100.962642387329026, 19.882878474153575 ] } },
{ "type": "Feature", "properties": { "fid": 8, "begin": "2", "end": "52", "layer": "Chetumal", "estatus": "01 de julio de 2025", "entidad": "Quintana Roo" }, "geometry": { "type": "Point", "coordinates": [ -88.345193364868024, 18.4928012091124 ] } },
{ "type": "Feature", "properties": { "fid": 9, "begin": "2", "end": "61", "layer": "Coatzacoalcos I", "estatus": "12 de mayo de 2023", "entidad": "Veracruz" }, "geometry": { "type": "Point", "coordinates": [ -94.341871155015866, 18.073744895132759 ] } },
{ "type": "Feature", "properties": { "fid": 10, "begin": "2", "end": "47", "layer": "Coatzacoalcos II", "estatus": "12 de mayo de 2023", "entidad": "Veracruz" }, "geometry": { "type": "Point", "coordinates": [ -94.391221799421245, 18.143619011979464 ] } },
{ "type": "Feature", "properties": { "fid": 11, "begin": "2", "end": "17", "layer": "Matías Romero Avendaño", "estatus": "11 de octubre de 2023", "entidad": "Oaxaca" }, "geometry": { "type": "Point", "coordinates": [ -95.036568053983885, 17.215715828031374 ] } },
{ "type": "Feature", "properties": { "fid": 12, "begin": "2", "end": "75", "layer": "Salina Cruz", "estatus": "12 de mayo de 2023", "entidad": "Oaxaca" }, "geometry": { "type": "Point", "coordinates": [ -95.186020944708886, 16.23821267650538 ] } },
{ "type": "Feature", "properties": { "fid": 13, "begin": "2", "end": "13", "layer": "San Blas Atempa", "estatus": "12 de mayo de 2023", "entidad": "Oaxaca" }, "geometry": { "type": "Point", "coordinates": [ -95.18195312523406, 16.350393502517029 ] } },
{ "type": "Feature", "properties": { "fid": 14, "begin": "2", "end": "10", "layer": "San Jerónimo", "estatus": "30 de junio de 2025", "entidad": "Chihuahua" }, "geometry": { "type": "Point", "coordinates": [ -106.64802539392808, 31.778579158157036 ] } },
{ "type": "Feature", "properties": { "fid": 15, "begin": "2", "end": "11", "layer": "San Juan Evangellista", "estatus": "12 de mayo de 2023", "entidad": "Veracruz" }, "geometry": { "type": "Point", "coordinates": [ -95.01882774860546, 17.719319102678028 ] } },
{ "type": "Feature", "properties": { "fid": 16, "begin": "2", "end": "22", "layer": "Seybaplaya I", "estatus": "30 de junio de 2025", "entidad": "Campeche" }, "geometry": { "type": "Point", "coordinates": [ -90.676102735657665, 19.664906339137929 ] } },
{ "type": "Feature", "properties": { "fid": 17, "begin": "2", "end": "30", "layer": "Tapachula I", "estatus": "08 de abril de 2025", "entidad": "Chiapas" }, "geometry": { "type": "Point", "coordinates": [ -92.386261107227142, 14.739840454414379 ] } },
{ "type": "Feature", "properties": { "fid": 18, "begin": "2", "end": "24", "layer": "Tapachula II", "estatus": "08 de abril de 2025", "entidad": "Chiapas" }, "geometry": { "type": "Point", "coordinates": [ -92.390779713131451, 14.719101549892656 ] } },
{ "type": "Feature", "properties": { "fid": 19, "begin": "2", "end": "54", "layer": "Texistepec", "estatus": "12 de mayo de 2023", "entidad": "Veracruz" }, "geometry": { "type": "Point", "coordinates": [ -94.797118169884769, 17.925560484425183 ] } },
{ "type": "Feature", "properties": { "fid": 20, "begin": "2", "end": "170", "layer": "Asunción Ixtaltepec", "estatus": "16 de octubre de 2023", "entidad": "Oaxaca" }, "geometry": { "type": "Point", "coordinates": [ -94.974086323508089, 16.707949918635506 ] } },
{ "type": "Feature", "properties": { "fid": 21, "begin": "2", "end": "41", "layer": "Reserva Zapotlan", "estatus": "30 de junio de 2025", "entidad": "Hidalgo" }, "geometry": { "type": "Point", "coordinates": [ -98.831607289545062, 19.949949014638378 ] } },
{ "type": "Feature", "properties": { "fid": 22, "begin": "1", "end": "113", "layer": "Santa María Mixtequilla", "estatus": "11 de octubre de 2023", "entidad": "Oaxaca" }, "geometry": { "type": "Point", "coordinates": [ -95.250864037664385, 16.422799199578954 ] } },
{ "type": "Feature", "properties": { "fid": 23, "begin": null, "end": null, "layer": "Puerta Logística del Bajío", "estatus": "21 de julio de 2025", "entidad": "Guanajuato" }, "geometry": { "type": "Point", "coordinates": [ -100.76100466524818, 20.468681001266216 ] } }
]
}
